satname,norad_id,inclination_deg,eccentricity,mean_motion_rev_per_day,perigee_km,apogee_km,l1,l2
STARLINK-1008,44714,53.1518,0.0004115,15.53425305,403.94196532933984,409.5259141127308,1 44714U 19074B   26194.52394458  .00032544  00000+0  51019-3 0  9999,2 44714  53.1518 302.3104 0004115 314.8794  45.1883 15.53425305368307
STARLINK-1012,44718,53.1551,0.0004648,15.53831028,402.3997578420822,408.70587589584466,1 44718U 19074F   26194.57857433  .00043395  00000+0  66701-3 0  9995,2 44718  53.1551 302.2657 0004648 319.9127  40.1540 15.53831028368305
STARLINK-1017,44723,53.0466,0.0001027,15.34195513,462.60846945237427,464.0137028892732,1 44723U 19074L   26194.60594160  .00023564  00000+0  71089-3 0  9991,2 44723  53.0466 305.8569 0001027 101.5065 258.6052 15.34195513368237
STARLINK-1020,44725,53.1562,0.0003702,15.59740702,385.9019352299483,390.9118843407541,1 44725U 19074N   26194.60171050  .00042187  00000+0  52109-3 0  9996,2 44725  53.1562 324.7785 0003702 282.7014  77.3585 15.59740702367975
STARLINK-1036,44741,53.0439,0.0002991,15.77281368,336.1382692995512,340.1559504540801,1 44741U 19074AE  26194.54959125  .00056571  00000+0  33886-3 0  9997,2 44741  53.0439 289.3742 0002991   5.0211 355.0838 15.77281368368457
STARLINK-1039,44744,53.0595,0.0001883,15.31143661,471.10895905524376,473.6888708808219,1 44744U 19074AH  26194.63934085  .00022282  00000+0  74025-3 0  9990,2 44744  53.0595 351.8863 0001883 173.3700 186.7325 15.31143661367590
STARLINK-1042,44747,53.0395,0.0001204,15.55793338,399.0314044041397,400.66354306541507,1 44747U 19074AL  26194.34535358  .00013778  00000+0  20263-3 0  9996,2 44747  53.0395 209.0901 0001204  43.8672 316.2433 15.55793338369594
STARLINK-1043,44748,53.0488,0.0001916,15.67154043,365.75848209070136,368.3432380786853,1 44748U 19074AM  26194.59995499  .00029134  00000+0  27128-3 0  9990,2 44748  53.0488 301.7890 0001916   1.3492 358.7528 15.67154043368293
STARLINK-1046,44751,53.0467,0.0003165,15.6003067,385.42705829117585,389.70974981194195,1 44751U 19074AQ  26194.60386097  .00047770  00000+0  58235-3 0  9993,2 44751  53.0467 325.2142 0003165 234.8619 125.2097 15.60030670367960
STARLINK-1047,44752,53.0695,0.0001314,15.35384654,458.87970310836135,460.6767072242783,1 44752U 19074AR  26194.50596758  .00015798  00000+0  46305-3 0  9990,2 44752  53.0695 277.0291 0001314 241.2756 118.8114 15.35384654368652
STARLINK-1048,44753,53.0436,0.000173,15.71127129,354.50956874272106,356.8394675279951,1 44753U 19074AS  26194.44959038  .00038696  00000+0  30428-3 0  9999,2 44753  53.0436 273.0150 0001730 134.7528 225.3630 15.71127129368672
STARLINK-1063,44768,53.1543,0.0002423,15.5352852,404.78951460902044,408.077317432625,1 44768U 19074BH  26194.60091795  .00044749  00000+0  69523-3 0  9994,2 44768  53.1543 342.9791 0002423 289.1263  70.9486 15.53528520367757
STARLINK-1067,44771,53.0414,0.0006531,15.83979684,314.8252101395874,323.5732707368479,1 44771U 19074BL  26194.51149175  .00100236  00000+0  43662-3 0  9994,2 44771  53.0414 301.6244 0006531 334.8978  25.1726 15.83979684368289
STARLINK-1068,44772,53.0387,0.0005834,15.81378991,322.6285590294874,330.45157623199975,1 44772U 19074BM  26194.62611071  .00002824  00000+0  17490-4 0  9991,2 44772  53.0387 275.2425 0005834 348.5829  11.5059 15.81378991368659
STARLINK-1114,44927,53.0403,0.0001398,15.73480608,348.017818700303,349.8987145368492,1 44927U 20001P   26194.58180049  .00043007  00000+0  30554-3 0  9999,2 44927  53.0403  74.7471 0001398 196.4100 163.6873 15.73480608359761
STARLINK-1123,44930,53.1401,0.0006586,15.63665635,372.63011717046265,381.5280878206695,1 44930U 20001S   26194.63204624  .00055967  00000+0  59092-3 0  9991,2 44930  53.1401 104.2249 0006586  77.0992 283.0759 15.63665635359374
STARLINK-1094,44941,53.15,0.000597,15.59040796,386.3910758472384,394.4727471275537,1 44941U 20001AD  26194.62661984  .00056776  00000+0  71631-3 0  9990,2 44941  53.1500  80.4343 0005970 101.7389 258.4294 15.59040796359715
STARLINK-1122,44949,53.1538,0.0006002,15.58604338,387.632206514636,395.7587133995694,1 44949U 20001AM  26193.92944088  .00039800  00000+0  51348-3 0  9991,2 44949  53.1538  84.3948 0006002  91.9581 268.2120 15.58604338359599
STARLINK-1080,44961,53.0444,0.0001817,15.71317558,353.90702244144086,356.35389183536427,1 44961U 20001AZ  26193.83282323  .00051515  00000+0  39971-3 0  9997,2 44961  53.0444  38.9241 0001817 165.3805 194.7265 15.71317558360206
STARLINK-1090,44968,53.147,0.0004787,15.54865591,399.29745619781806,405.7892795820353,1 44968U 20001BG  26194.58398063  .00024217  00000+0  36247-3 0  9998,2 44968  53.1470  69.9483 0004787 100.7867 259.3683 15.54865591359852
STARLINK-1132,45044,53.1484,0.0001433,15.60220459,386.0502814273268,387.98917534568227,1 45044U 20006A   26194.62807177  .00060962  00000+0  73506-3 0  9991,2 45044  53.1484   9.3812 0001433 202.2832 157.8120 15.60220459356481
STARLINK-1131,45047,53.1534,7.82e-05,15.59387615,388.89906513360165,389.9575123447594,1 45047U 20006D   26194.66668981  .00023411  00000+0  29662-3 0  9998,2 45047  53.1534  42.9077 0000782 113.9032 319.3831 15.59387615  5944
STARLINK-1134,45048,53.0234,0.0005311,15.63244498,374.7039421724303,381.8806213555199,1 45048U 20006E   26194.61342206  .00041407  00000+0  44687-3 0  9992,2 45048  53.0234 350.7929 0005311 212.0768 147.9923 15.63244498356714
STARLINK-1156,45054,53.1551,0.0003775,15.38069249,449.24083710286595,454.3974539927549,1 45054U 20006L   26193.92436668  .00028921  00000+0  76798-3 0  9992,2 45054  53.1551  56.7030 0003775 111.5485 248.5922 15.38069249355752
STARLINK-1166,45060,53.0427,1.2e-05,15.68953001,361.8129823625195,361.9747431032247,1 45060U 20006S   26194.62295917  .00034791  00000+0  29997-3 0  9998,2 45060  53.0427  23.1658 0000120 332.3513  27.7497 15.68953001356262
STARLINK-1169,45061,53.1547,0.0004841,15.41657098,437.917022917346,444.51952269247613,1 45061U 20006T   26193.87938483  .00042736  00000+0  10024-2 0  9995,2 45061  53.1547  54.6179 0004841  89.6138 270.5423 15.41657098355784
STARLINK-1171,45062,53.0382,0.0001638,15.80118335,329.00688404180437,331.20450434842223,1 45062U 20006U   26194.65222315  .00064172  00000+0  33766-3 0  9990,2 45062  53.0382 345.4126 0001638 351.4029   8.6963 15.80118335356794
STARLINK-1133,45064,53.1562,0.0003934,15.37939385,449.5165663135049,454.8906783151424,1 45064U 20006W   26194.54690910  .00020233  00000+0  54327-3 0  9996,2 45064  53.1562  30.5666 0003934 119.6419 240.4978 15.37939385356189
STARLINK-1167,45071,53.1549,0.0002399,15.40669606,442.4952092781041,445.76853388268864,1 45071U 20006AD  26193.97061433  .00023621  00000+0  57839-3 0  9997,2 45071  53.1549  31.6962 0002399  57.7369 302.3869 15.40669606356113
STARLINK-1168,45072,53.156,0.0003117,15.38464018,448.5221871770518,452.77925344189225,1 45072U 20006AE  26193.93405596  .00038501  00000+0  10048-2 0  9999,2 45072  53.1560  33.5634 0003117 111.1919 248.9419 15.38464018356088
STARLINK-1172,45074,53.1528,0.0002318,15.41701576,439.5064173584342,442.6678096574551,1 45074U 20006AG  26193.96981308  .00033249  00000+0  78199-3 0  9990,2 45074  53.1528  30.7722 0002318  88.1761 271.9511 15.41701576356122
STARLINK-1153,45080,53.1569,0.0004219,15.40658281,441.2869747440782,447.04363342826673,1 45080U 20006AN  26194.53638686  .00020567  00000+0  50519-3 0  9994,2 45080  53.1569  28.9295 0004219  65.8109 294.3337 15.40658281356205
STARLINK-1151,45081,53.0442,0.0010502,16.0223309,261.2559725891051,275.21601442466635,1 45081U 20006AP  26194.62785384  .00283802  46027-4  47644-3 0  9995,2 45081  53.0442 329.8931 0010502 319.9788  40.0468 16.02233090357009
STARLINK-1185,45087,53.1579,0.0002143,15.50011183,415.237254700839,418.1495190046435,1 45087U 20006AV  26193.89229829  .00073623  00000+0  12871-2 0  9993,2 45087  53.1579   9.8682 0002143 143.8612 216.2542 15.50011183356410
STARLINK-1183,45088,53.1564,0.0003329,15.37850281,450.1935476605704,454.741364107299,1 45088U 20006AW  26194.50852473  .00033959  00000+0  90579-3 0  9990,2 45088  53.1564  15.5849 0003329 135.2633 224.8640 15.37850281356384
STARLINK-1152,45096,53.0323,0.0003406,15.53379262,404.55703784400976,409.1789832571967,1 45096U 20006BE  26194.60457084  .00045137  00000+0  70482-3 0  9991,2 45096  53.0323 325.8304 0003406 281.6966  78.3660 15.53379262357062
STARLINK-1184,45098,53.0507,0.0004492,15.15835469,515.3453688078425,521.5412565607585,1 45098U 20006BG  26193.96663659  .00021309  00000+0  11140-2 0  9998,2 45098  53.0507  37.1337 0004492 138.5257 221.6078 15.15835469356009
STARLINK-1193,45100,53.0463,0.000347,15.71757881,351.536855269268,356.20887011397645,1 45100U 20006BJ  26194.61584788  .00040337  00000+0  30860-3 0  9993,2 45100  53.0463 332.7813 0003470  64.1261 296.0114 15.71757881356966
STARLINK-1143,45179,53.0276,0.0004427,16.10405762,242.79802716708946,248.66279937480067,1 45179U 20012B   26193.94658473  .00578222  18583-3  58340-3 0  9995,2 45179  53.0276  59.8039 0004427 241.7154 118.3433 16.10405762355745
STARLINK-1202,45183,53.1547,0.0004071,15.37556738,450.5557128559558,456.1178988286729,1 45183U 20012F   26194.32802019  .00029960  00000+0  80835-3 0  9995,2 45183  53.1547 173.2285 0004071  16.5389 343.5747 15.37556738354229
STARLINK-1216,45185,53.1508,0.0004267,15.38104107,448.8016555299182,454.6302520406789,1 45185U 20012H   26194.36340932  .00046741  00000+0  12305-2 0  9994,2 45185  53.1508 172.8257 0004267  19.2636 340.8529 15.38104107354176
STARLINK-1225,45187,53.1543,0.0004778,15.38039381,448.6441729867847,455.1709635762345,1 45187U 20012K   26194.36183407  .00033006  00000+0  87528-3 0  9998,2 45187  53.1543 173.2960 0004778  24.4325 335.6905 15.38039381354219
STARLINK-1230,45189,53.1529,0.0004845,15.37920766,448.9494236215878,455.56807710368867,1 45189U 20012M   26194.37632984  .00024514  00000+0  65597-3 0  9996,2 45189  53.1529 173.3339 0004845  29.2306 330.8969 15.37920766351447
